CCSDS_OMM_VERS = 2.0
CREATION_DATE  = 
ORIGINATOR     = 

OBJECT_NAME    = STARLINK-36587
OBJECT_ID      = 2026-014A
CENTER_NAME    = EARTH
REF_FRAME      = TEME
TIME_SYSTEM    = UTC
MEAN_ELEMENT_THEORY = SGP/SGP4

EPOCH          = 2026-02-03T04:00:01.999584
MEAN_MOTION    = 15.82282265
ECCENTRICITY   = .0001655
INCLINATION    = 97.2808
RA_OF_ASC_NODE = 277.2936
ARG_OF_PERICENTER = 104.8651
MEAN_ANOMALY   = 197.1239

EPHEMERIS_TYPE = 0
CLASSIFICATION_TYPE = U
NORAD_CAT_ID   = 67532
ELEMENT_SET_NO = 999
REV_AT_EPOCH   = 313
BSTAR          = -.92361E-2
MEAN_MOTION_DOT = -.165063E-1
MEAN_MOTION_DDOT = 0

CCSDS_OMM_VERS = 2.0
CREATION_DATE  = 
ORIGINATOR     = 

OBJECT_NAME    = STARLINK-36417
OBJECT_ID      = 2026-014B
CENTER_NAME    = EARTH
REF_FRAME      = TEME
TIME_SYSTEM    = UTC
MEAN_ELEMENT_THEORY = SGP/SGP4

EPOCH          = 2026-02-03T04:00:01.999584
MEAN_MOTION    = 15.82255595
ECCENTRICITY   = .000157
INCLINATION    = 97.2809
RA_OF_ASC_NODE = 277.2944
ARG_OF_PERICENTER = 104.8503
MEAN_ANOMALY   = 199.8960

EPHEMERIS_TYPE = 0
CLASSIFICATION_TYPE = U
NORAD_CAT_ID   = 67533
ELEMENT_SET_NO = 999
REV_AT_EPOCH   = 313
BSTAR          = -.81754E-2
MEAN_MOTION_DOT = -.148142E-1
MEAN_MOTION_DDOT = 0

CCSDS_OMM_VERS = 2.0
CREATION_DATE  = 
ORIGINATOR     = 

OBJECT_NAME    = STARLINK-36576
OBJECT_ID      = 2026-014C
CENTER_NAME    = EARTH
REF_FRAME      = TEME
TIME_SYSTEM    = UTC
MEAN_ELEMENT_THEORY = SGP/SGP4

EPOCH          = 2026-02-03T04:00:01.999584
MEAN_MOTION    = 15.82438798
ECCENTRICITY   = .0001666
INCLINATION    = 97.2809
RA_OF_ASC_NODE = 277.2964
ARG_OF_PERICENTER = 100.0220
MEAN_ANOMALY   = 209.4856

EPHEMERIS_TYPE = 0
CLASSIFICATION_TYPE = U
NORAD_CAT_ID   = 67534
ELEMENT_SET_NO = 999
REV_AT_EPOCH   = 313
BSTAR          = -.82952E-2
MEAN_MOTION_DOT = -.1512105E-1
MEAN_MOTION_DDOT = 0

CCSDS_OMM_VERS = 2.0
CREATION_DATE  = 
ORIGINATOR     = 

OBJECT_NAME    = STARLINK-36574
OBJECT_ID      = 2026-014D
CENTER_NAME    = EARTH
REF_FRAME      = TEME
TIME_SYSTEM    = UTC
MEAN_ELEMENT_THEORY = SGP/SGP4

EPOCH          = 2026-02-03T04:00:01.999584
MEAN_MOTION    = 15.82624868
ECCENTRICITY   = .0001208
INCLINATION    = 97.2813
RA_OF_ASC_NODE = 277.3000
ARG_OF_PERICENTER = 104.0921
MEAN_ANOMALY   = 212.2584

EPHEMERIS_TYPE = 0
CLASSIFICATION_TYPE = U
NORAD_CAT_ID   = 67535
ELEMENT_SET_NO = 999
REV_AT_EPOCH   = 313
BSTAR          = -.75186E-2
MEAN_MOTION_DOT = -.1369995E-1
MEAN_MOTION_DDOT = 0

CCSDS_OMM_VERS = 2.0
CREATION_DATE  = 
ORIGINATOR     = 

OBJECT_NAME    = STARLINK-36572
OBJECT_ID      = 2026-014E
CENTER_NAME    = EARTH
REF_FRAME      = TEME
TIME_SYSTEM    = UTC
MEAN_ELEMENT_THEORY = SGP/SGP4

EPOCH          = 2026-02-03T04:00:01.999584
MEAN_MOTION    = 15.82888492
ECCENTRICITY   = .0001304
INCLINATION    = 97.2810
RA_OF_ASC_NODE = 277.3018
ARG_OF_PERICENTER = 94.3278
MEAN_ANOMALY   = 228.3274

EPHEMERIS_TYPE = 0
CLASSIFICATION_TYPE = U
NORAD_CAT_ID   = 67536
ELEMENT_SET_NO = 999
REV_AT_EPOCH   = 313
BSTAR          = -.80243E-2
MEAN_MOTION_DOT = -.1495868E-1
MEAN_MOTION_DDOT = 0

CCSDS_OMM_VERS = 2.0
CREATION_DATE  = 
ORIGINATOR     = 

OBJECT_NAME    = STARLINK-36561
OBJECT_ID      = 2026-014F
CENTER_NAME    = EARTH
REF_FRAME      = TEME
TIME_SYSTEM    = UTC
MEAN_ELEMENT_THEORY = SGP/SGP4

EPOCH          = 2026-02-03T04:00:01.999584
MEAN_MOTION    = 15.83063722
ECCENTRICITY   = .000138
INCLINATION    = 97.2806
RA_OF_ASC_NODE = 277.3034
ARG_OF_PERICENTER = 96.0467
MEAN_ANOMALY   = 231.6925

EPHEMERIS_TYPE = 0
CLASSIFICATION_TYPE = U
NORAD_CAT_ID   = 67537
ELEMENT_SET_NO = 999
REV_AT_EPOCH   = 313
BSTAR          = -.79294E-2
MEAN_MOTION_DOT = -.1491144E-1
MEAN_MOTION_DDOT = 0

CCSDS_OMM_VERS = 2.0
CREATION_DATE  = 
ORIGINATOR     = 

OBJECT_NAME    = STARLINK-36397
OBJECT_ID      = 2026-014G
CENTER_NAME    = EARTH
REF_FRAME      = TEME
TIME_SYSTEM    = UTC
MEAN_ELEMENT_THEORY = SGP/SGP4

EPOCH          = 2026-02-03T04:00:01.999584
MEAN_MOTION    = 15.83217355
ECCENTRICITY   = .0001337
INCLINATION    = 97.2802
RA_OF_ASC_NODE = 277.3047
ARG_OF_PERICENTER = 92.1991
MEAN_ANOMALY   = 240.0273

EPHEMERIS_TYPE = 0
CLASSIFICATION_TYPE = U
NORAD_CAT_ID   = 67538
ELEMENT_SET_NO = 999
REV_AT_EPOCH   = 313
BSTAR          = -.78855E-2
MEAN_MOTION_DOT = -.1493381E-1
MEAN_MOTION_DDOT = 0

CCSDS_OMM_VERS = 2.0
CREATION_DATE  = 
ORIGINATOR     = 

OBJECT_NAME    = STARLINK-36573
OBJECT_ID      = 2026-014H
CENTER_NAME    = EARTH
REF_FRAME      = TEME
TIME_SYSTEM    = UTC
MEAN_ELEMENT_THEORY = SGP/SGP4

EPOCH          = 2026-02-03T04:00:01.999584
MEAN_MOTION    = 15.83412441
ECCENTRICITY   = .000128
INCLINATION    = 97.2803
RA_OF_ASC_NODE = 277.3071
ARG_OF_PERICENTER = 95.4912
MEAN_ANOMALY   = 242.3558

EPHEMERIS_TYPE = 0
CLASSIFICATION_TYPE = U
NORAD_CAT_ID   = 67539
ELEMENT_SET_NO = 999
REV_AT_EPOCH   = 313
BSTAR          = -.77659E-2
MEAN_MOTION_DOT = -.148538E-1
MEAN_MOTION_DDOT = 0

CCSDS_OMM_VERS = 2.0
CREATION_DATE  = 
ORIGINATOR     = 

OBJECT_NAME    = STARLINK-36585
OBJECT_ID      = 2026-014J
CENTER_NAME    = EARTH
REF_FRAME      = TEME
TIME_SYSTEM    = UTC
MEAN_ELEMENT_THEORY = SGP/SGP4

EPOCH          = 2026-02-03T04:00:01.999584
MEAN_MOTION    = 15.83578485
ECCENTRICITY   = .0001263
INCLINATION    = 97.2800
RA_OF_ASC_NODE = 277.3086
ARG_OF_PERICENTER = 93.7752
MEAN_ANOMALY   = 248.9080

EPHEMERIS_TYPE = 0
CLASSIFICATION_TYPE = U
NORAD_CAT_ID   = 67540
ELEMENT_SET_NO = 999
REV_AT_EPOCH   = 313
BSTAR          = -.76941E-2
MEAN_MOTION_DOT = -.1483535E-1
MEAN_MOTION_DDOT = 0

CCSDS_OMM_VERS = 2.0
CREATION_DATE  = 
ORIGINATOR     = 

OBJECT_NAME    = STARLINK-36579
OBJECT_ID      = 2026-014K
CENTER_NAME    = EARTH
REF_FRAME      = TEME
TIME_SYSTEM    = UTC
MEAN_ELEMENT_THEORY = SGP/SGP4

EPOCH          = 2026-02-03T04:00:01.999584
MEAN_MOTION    = 15.83810524
ECCENTRICITY   = .0001192
INCLINATION    = 97.2804
RA_OF_ASC_NODE = 277.3117
ARG_OF_PERICENTER = 94.7881
MEAN_ANOMALY   = 254.3974

EPHEMERIS_TYPE = 0
CLASSIFICATION_TYPE = U
NORAD_CAT_ID   = 67541
ELEMENT_SET_NO = 999
REV_AT_EPOCH   = 313
BSTAR          = -.76181E-2
MEAN_MOTION_DOT = -.1484948E-1
MEAN_MOTION_DDOT = 0

CCSDS_OMM_VERS = 2.0
CREATION_DATE  = 
ORIGINATOR     = 

OBJECT_NAME    = STARLINK-35934
OBJECT_ID      = 2026-014L
CENTER_NAME    = EARTH
REF_FRAME      = TEME
TIME_SYSTEM    = UTC
MEAN_ELEMENT_THEORY = SGP/SGP4

EPOCH          = 2026-02-03T04:00:01.999584
MEAN_MOTION    = 15.84065061
ECCENTRICITY   = .0001305
INCLINATION    = 97.2803
RA_OF_ASC_NODE = 277.3147
ARG_OF_PERICENTER = 94.9434
MEAN_ANOMALY   = 261.4460

EPHEMERIS_TYPE = 0
CLASSIFICATION_TYPE = U
NORAD_CAT_ID   = 67542
ELEMENT_SET_NO = 999
REV_AT_EPOCH   = 312
BSTAR          = -.75049E-2
MEAN_MOTION_DOT = -.1481308E-1
MEAN_MOTION_DDOT = 0

CCSDS_OMM_VERS = 2.0
CREATION_DATE  = 
ORIGINATOR     = 

OBJECT_NAME    = STARLINK-36581
OBJECT_ID      = 2026-014M
CENTER_NAME    = EARTH
REF_FRAME      = TEME
TIME_SYSTEM    = UTC
MEAN_ELEMENT_THEORY = SGP/SGP4

EPOCH          = 2026-02-03T04:00:01.999584
MEAN_MOTION    = 15.84278182
ECCENTRICITY   = .0001337
INCLINATION    = 97.2802
RA_OF_ASC_NODE = 277.3173
ARG_OF_PERICENTER = 86.4710
MEAN_ANOMALY   = 275.9192

EPHEMERIS_TYPE = 0
CLASSIFICATION_TYPE = U
NORAD_CAT_ID   = 67543
ELEMENT_SET_NO = 999
REV_AT_EPOCH   = 313
BSTAR          = -.74326E-2
MEAN_MOTION_DOT = -.1482002E-1
MEAN_MOTION_DDOT = 0

