STARLINK-36587          
1 67532U 26014A   26034.16668981 -.01650630  00000+0 -92361-2 0  9991
2 67532  97.2808 277.2936 0001655 104.8651 197.1239 15.82282265  3137
STARLINK-36417          
1 67533U 26014B   26034.16668981 -.01481420  00000+0 -81754-2 0  9995
2 67533  97.2809 277.2944 0001570 104.8503 199.8960 15.82255595  3136
STARLINK-36576          
1 67534U 26014C   26034.16668981 -.01512105  00000+0 -82952-2 0  9992
2 67534  97.2809 277.2964 0001666 100.0220 209.4856 15.82438798  3139
STARLINK-36574          
1 67535U 26014D   26034.16668981 -.01369995  00000+0 -75186-2 0  9991
2 67535  97.2813 277.3000 0001208 104.0921 212.2584 15.82624868  3136
STARLINK-36572          
1 67536U 26014E   26034.16668981 -.01495868  00000+0 -80243-2 0  9991
2 67536  97.2810 277.3018 0001304  94.3278 228.3274 15.82888492  3135
STARLINK-36561          
1 67537U 26014F   26034.16668981 -.01491144  00000+0 -79294-2 0  9999
2 67537  97.2806 277.3034 0001380  96.0467 231.6925 15.83063722  3134
STARLINK-36397          
1 67538U 26014G   26034.16668981 -.01493381  00000+0 -78855-2 0  9997
2 67538  97.2802 277.3047 0001337  92.1991 240.0273 15.83217355  3139
STARLINK-36573          
1 67539U 26014H   26034.16668981 -.01485380  00000+0 -77659-2 0  9999
2 67539  97.2803 277.3071 0001280  95.4912 242.3558 15.83412441  3138
STARLINK-36585          
1 67540U 26014J   26034.16668981 -.01483535  00000+0 -76941-2 0  9994
2 67540  97.2800 277.3086 0001263  93.7752 248.9080 15.83578485  3130
STARLINK-36579          
1 67541U 26014K   26034.16668981 -.01484948  00000+0 -76181-2 0  9990
2 67541  97.2804 277.3117 0001192  94.7881 254.3974 15.83810524  3131
STARLINK-35934          
1 67542U 26014L   26034.16668981 -.01481308  00000+0 -75049-2 0  9990
2 67542  97.2803 277.3147 0001305  94.9434 261.4460 15.84065061  3123
STARLINK-36581          
1 67543U 26014M   26034.16668981 -.01482002  00000+0 -74326-2 0  9990
2 67543  97.2802 277.3173 0001337  86.4710 275.9192 15.84278182  3133
